STARLINK-32499          
1 61959U 24210A   26067.37553801  .00038184  00000+0  13881-2 0  9998
2 61959  43.0084 186.8514 0003092 269.5015  90.5482 15.27620371 74728
2025-155V               
1 64895U 25155V   26068.85787115  .00013705  00000+0  51002-3 0  9990
2 64895  97.4485  37.2490 0008035 152.8264 207.3397 15.27583301 65579
